LEMUR-2-CAEL            
1 58903U 24022E   26068.56319234  .00018622  00000+0  50450-3 0  9995
2 58903  97.4213 278.2830 0009522  94.7172 265.5160 15.37664327117010
STARLINK-35138          
1 65420U 25192S   26068.75736704  .00037828  00000+0  10050-2 0  9992
2 65420  53.1584 232.1097 0000987  72.4425 287.6687 15.37923364 29397
