[{"OBJECT_NAME":"LEMUR-2-CAEL","OBJECT_ID":"2024-022E","EPOCH":"2026-03-09T13:30:59.818176","MEAN_MOTION":15.37664327,"ECCENTRICITY":0.0009522,"INCLINATION":97.4213,"RA_OF_ASC_NODE":278.283,"ARG_OF_PERICENTER":94.7172,"MEAN_ANOMALY":265.516,"EPHEMERIS_TYPE":0,"CLASSIFICATION_TYPE":"U","NORAD_CAT_ID":58903,"ELEMENT_SET_NO":999,"REV_AT_EPOCH":11701,"BSTAR":0.0005045,"MEAN_MOTION_DOT":0.00018622,"MEAN_MOTION_DDOT":0},{"OBJECT_NAME":"STARLINK-35138","OBJECT_ID":"2025-192S","EPOCH":"2026-03-09T18:10:36.513120","MEAN_MOTION":15.37923364,"ECCENTRICITY":9.874e-5,"INCLINATION":53.1584,"RA_OF_ASC_NODE":232.1097,"ARG_OF_PERICENTER":72.4425,"MEAN_ANOMALY":287.6687,"EPHEMERIS_TYPE":0,"CLASSIFICATION_TYPE":"U","NORAD_CAT_ID":65420,"ELEMENT_SET_NO":999,"REV_AT_EPOCH":2939,"BSTAR":0.0010050269,"MEAN_MOTION_DOT":0.00037828,"MEAN_MOTION_DDOT":0}]
